SL-12 R/B(2)            
1 21129U 91010F   26086.54438473  .00000093  00000+0  00000+0 0  9996
2 21129  13.2088 342.9372 0016845 232.7512  12.8517  1.00124388128850
RADUGA 27               
1 21132U 91014A   26087.70313405 -.00000187  00000+0  00000+0 0  9995
2 21132  13.4159 337.4639 0001698 335.4392 205.7889  1.00378708128501
MOLNIYA 3-40            
1 21196U 91022A   26085.59563517  .00000767  00000+0  00000+0 0  9993
2 21196  64.7082 195.9938 6411785 255.0460  30.0703  2.02996140257668
SL-6 R/B(2)             
1 21199U 91022D   26083.63453685 -.00000447  00000+0  00000+0 0  9999
2 21199  64.4657 152.0207 6604070 252.8910  29.3090  2.05835873262850
SPACENET 4 (ASC 2)      
1 21227U 91028A   26087.91165830  .00000087  00000+0  00000+0 0  9993
2 21227  13.6882  14.4413 0007716 313.8348 238.9664  0.99563980125579
SPACENET 4 R/B [PAM-D]  
1 21229U 91028C   26084.33569542 -.00000135  00000+0  00000+0 0  9991
2 21229  22.3404 303.4434 6911779 195.7312 114.0991  2.19699123280447
MOLNIYA 1-81            
1 21426U 91043A   26085.33806762  .00000303  00000+0  00000+0 0  9992
2 21426  63.4162 188.2460 6747451 258.6025  24.3595  2.00601872254803
SL-6 R/B(2)             
1 21429U 91043D   26070.01122807  .00000296  00000+0  00000+0 0  9996
2 21429  63.7117 258.6048 6880589 262.6966  20.9447  1.96664254249430
SL-12 R/B(2)            
1 21536U 91046D   26088.10362485 -.00000290  00000+0  00000+0 0  9990
2 21536  12.8933 339.1237 0015193 251.4181 294.9736  1.00930413122998
TDRS 5                  
1 21639U 91054B   26087.25558338  .00000072  00000+0  00000+0 0  9999
2 21639  14.0818 354.3784 0009589 279.2122 196.4212  1.00275572126907
IUS R/B(2)              
1 21641U 91054D   26088.10154485 -.00000306  00000+0  00000+0 0  9993
2 21641  13.8386 333.6071 0036778 345.5867 195.2732  1.00371373 46562
COSMOS 2155             
1 21702U 91064A   26087.35697117  .00000081  00000+0  00000+0 0  9991
2 21702  13.1875 339.8560 0002444 266.8192 284.8741  1.00176703126526
SL-12 R/B(2)            
1 21703U 91064B   26087.63900042 -.00000359  00000+0  00000+0 0  9996
2 21703  13.3899 340.5159 0003239   7.8870 183.8247  0.99891109119349
MOLNIYA 3-41            
1 21706U 91065A   26087.75821234 -.00000412  00000+0  45840-3 0  9993
2 21706  62.9847 333.7083 7429558 252.5169  20.2841  2.04487115255079
SL-12 R/B(2)            
1 21762U 91074D   26087.90255826 -.00000094  00000+0  00000+0 0  9991
2 21762  13.5085 341.9369 0001886 260.6037 274.8858  0.99709416118876
INTELSAT 601 (IS-601)   
1 21765U 91075A   26087.84489259  .00000030  00000+0  00000+0 0  9996
2 21765  13.3101  17.5188 0003490 309.9664 233.2295  0.99585159125572
COSMOS 2172             
1 21789U 91079A   26087.96923947 -.00000171  00000+0  00000+0 0  9993
2 21789  13.3118 340.9374 0004430   8.2903 168.9499  1.00258680 46555
