[{"OBJECT_NAME":"SL-12 R/B(2)","OBJECT_ID":"1991-010F","EPOCH":"2026-03-27T13:03:54.840672","MEAN_MOTION":1.00124388,"ECCENTRICITY":0.0016845,"INCLINATION":13.2088,"RA_OF_ASC_NODE":342.9372,"ARG_OF_PERICENTER":232.7512,"MEAN_ANOMALY":12.8517,"EPHEMERIS_TYPE":0,"CLASSIFICATION_TYPE":"U","NORAD_CAT_ID":21129,"ELEMENT_SET_NO":999,"REV_AT_EPOCH":12885,"BSTAR":0,"MEAN_MOTION_DOT":9.3e-7,"MEAN_MOTION_DDOT":0},{"OBJECT_NAME":"RADUGA 27","OBJECT_ID":"1991-014A","EPOCH":"2026-03-28T16:52:30.781920","MEAN_MOTION":1.00378708,"ECCENTRICITY":0.0001698,"INCLINATION":13.4159,"RA_OF_ASC_NODE":337.4639,"ARG_OF_PERICENTER":335.4392,"MEAN_ANOMALY":205.7889,"EPHEMERIS_TYPE":0,"CLASSIFICATION_TYPE":"U","NORAD_CAT_ID":21132,"ELEMENT_SET_NO":999,"REV_AT_EPOCH":12850,"BSTAR":0,"MEAN_MOTION_DOT":-1.87e-6,"MEAN_MOTION_DDOT":0},{"OBJECT_NAME":"MOLNIYA 3-40","OBJECT_ID":"1991-022A","EPOCH":"2026-03-26T14:17:42.878688","MEAN_MOTION":2.0299614,"ECCENTRICITY":0.64117853,"INCLINATION":64.7082,"RA_OF_ASC_NODE":195.9938,"ARG_OF_PERICENTER":255.046,"MEAN_ANOMALY":30.0703,"EPHEMERIS_TYPE":0,"CLASSIFICATION_TYPE":"U","NORAD_CAT_ID":21196,"ELEMENT_SET_NO":999,"REV_AT_EPOCH":25766,"BSTAR":0,"MEAN_MOTION_DOT":7.67e-6,"MEAN_MOTION_DDOT":0},{"OBJECT_NAME":"SL-6 R/B(2)","OBJECT_ID":"1991-022D","EPOCH":"2026-03-24T15:13:43.983840","MEAN_MOTION":2.05835873,"ECCENTRICITY":0.66040709,"INCLINATION":64.4657,"RA_OF_ASC_NODE":152.0207,"ARG_OF_PERICENTER":252.891,"MEAN_ANOMALY":29.309,"EPHEMERIS_TYPE":0,"CLASSIFICATION_TYPE":"U","NORAD_CAT_ID":21199,"ELEMENT_SET_NO":999,"REV_AT_EPOCH":26285,"BSTAR":0,"MEAN_MOTION_DOT":-4.47e-6,"MEAN_MOTION_DDOT":0},{"OBJECT_NAME":"SPACENET 4 (ASC 2)","OBJECT_ID":"1991-028A","EPOCH":"2026-03-28T21:52:47.277120","MEAN_MOTION":0.9956398,"ECCENTRICITY":0.0007716,"INCLINATION":13.6882,"RA_OF_ASC_NODE":14.4413,"ARG_OF_PERICENTER":313.8348,"MEAN_ANOMALY":238.9664,"EPHEMERIS_TYPE":0,"CLASSIFICATION_TYPE":"U","NORAD_CAT_ID":21227,"ELEMENT_SET_NO":999,"REV_AT_EPOCH":12557,"BSTAR":0,"MEAN_MOTION_DOT":8.7e-7,"MEAN_MOTION_DDOT":0},{"OBJECT_NAME":"SPACENET 4 R/B [PAM-D]","OBJECT_ID":"1991-028C","EPOCH":"2026-03-25T08:03:24.084288","MEAN_MOTION":2.19699123,"ECCENTRICITY":0.69117797,"INCLINATION":22.3404,"RA_OF_ASC_NODE":303.4434,"ARG_OF_PERICENTER":195.7312,"MEAN_ANOMALY":114.0991,"EPHEMERIS_TYPE":0,"CLASSIFICATION_TYPE":"U","NORAD_CAT_ID":21229,"ELEMENT_SET_NO":999,"REV_AT_EPOCH":28044,"BSTAR":0,"MEAN_MOTION_DOT":-1.35e-6,"MEAN_MOTION_DDOT":0},{"OBJECT_NAME":"MOLNIYA 1-81","OBJECT_ID":"1991-043A","EPOCH":"2026-03-26T08:06:49.042368","MEAN_MOTION":2.00601872,"ECCENTRICITY":0.67474515,"INCLINATION":63.4162,"RA_OF_ASC_NODE":188.246,"ARG_OF_PERICENTER":258.6025,"MEAN_ANOMALY":24.3595,"EPHEMERIS_TYPE":0,"CLASSIFICATION_TYPE":"U","NORAD_CAT_ID":21426,"ELEMENT_SET_NO":999,"REV_AT_EPOCH":25480,"BSTAR":0,"MEAN_MOTION_DOT":3.03e-6,"MEAN_MOTION_DDOT":0},{"OBJECT_NAME":"SL-6 R/B(2)","OBJECT_ID":"1991-043D","EPOCH":"2026-03-11T00:16:10.105248","MEAN_MOTION":1.96664254,"ECCENTRICITY":0.68805893,"INCLINATION":63.7117,"RA_OF_ASC_NODE":258.6048,"ARG_OF_PERICENTER":262.6966,"MEAN_ANOMALY":20.9447,"EPHEMERIS_TYPE":0,"CLASSIFICATION_TYPE":"U","NORAD_CAT_ID":21429,"ELEMENT_SET_NO":999,"REV_AT_EPOCH":24943,"BSTAR":0,"MEAN_MOTION_DOT":2.96e-6,"MEAN_MOTION_DDOT":0},{"OBJECT_NAME":"SL-12 R/B(2)","OBJECT_ID":"1991-046D","EPOCH":"2026-03-29T02:29:13.187040","MEAN_MOTION":1.00930413,"ECCENTRICITY":0.0015193,"INCLINATION":12.8933,"RA_OF_ASC_NODE":339.1237,"ARG_OF_PERICENTER":251.4181,"MEAN_ANOMALY":294.9736,"EPHEMERIS_TYPE":0,"CLASSIFICATION_TYPE":"U","NORAD_CAT_ID":21536,"ELEMENT_SET_NO":999,"REV_AT_EPOCH":12299,"BSTAR":0,"MEAN_MOTION_DOT":-2.9e-6,"MEAN_MOTION_DDOT":0},{"OBJECT_NAME":"TDRS 5","OBJECT_ID":"1991-054B","EPOCH":"2026-03-28T06:08:02.404032","MEAN_MOTION":1.00275572,"ECCENTRICITY":0.0009589,"INCLINATION":14.0818,"RA_OF_ASC_NODE":354.3784,"ARG_OF_PERICENTER":279.2122,"MEAN_ANOMALY":196.4212,"EPHEMERIS_TYPE":0,"CLASSIFICATION_TYPE":"U","NORAD_CAT_ID":21639,"ELEMENT_SET_NO":999,"REV_AT_EPOCH":12690,"BSTAR":0,"MEAN_MOTION_DOT":7.2e-7,"MEAN_MOTION_DDOT":0},{"OBJECT_NAME":"IUS R/B(2)","OBJECT_ID":"1991-054D","EPOCH":"2026-03-29T02:26:13.475040","MEAN_MOTION":1.00371373,"ECCENTRICITY":0.0036778,"INCLINATION":13.8386,"RA_OF_ASC_NODE":333.6071,"ARG_OF_PERICENTER":345.5867,"MEAN_ANOMALY":195.2732,"EPHEMERIS_TYPE":0,"CLASSIFICATION_TYPE":"U","NORAD_CAT_ID":21641,"ELEMENT_SET_NO":999,"REV_AT_EPOCH":4656,"BSTAR":0,"MEAN_MOTION_DOT":-3.06e-6,"MEAN_MOTION_DDOT":0},{"OBJECT_NAME":"COSMOS 2155","OBJECT_ID":"1991-064A","EPOCH":"2026-03-28T08:34:02.309088","MEAN_MOTION":1.00176703,"ECCENTRICITY":0.00024448,"INCLINATION":13.1875,"RA_OF_ASC_NODE":339.856,"ARG_OF_PERICENTER":266.8192,"MEAN_ANOMALY":284.8741,"EPHEMERIS_TYPE":0,"CLASSIFICATION_TYPE":"U","NORAD_CAT_ID":21702,"ELEMENT_SET_NO":999,"REV_AT_EPOCH":12652,"BSTAR":0,"MEAN_MOTION_DOT":8.1e-7,"MEAN_MOTION_DDOT":0},{"OBJECT_NAME":"SL-12 R/B(2)","OBJECT_ID":"1991-064B","EPOCH":"2026-03-28T15:20:09.636288","MEAN_MOTION":0.99891109,"ECCENTRICITY":0.0003239,"INCLINATION":13.3899,"RA_OF_ASC_NODE":340.5159,"ARG_OF_PERICENTER":7.887,"MEAN_ANOMALY":183.8247,"EPHEMERIS_TYPE":0,"CLASSIFICATION_TYPE":"U","NORAD_CAT_ID":21703,"ELEMENT_SET_NO":999,"REV_AT_EPOCH":11934,"BSTAR":0,"MEAN_MOTION_DOT":-3.59e-6,"MEAN_MOTION_DDOT":0},{"OBJECT_NAME":"MOLNIYA 3-41","OBJECT_ID":"1991-065A","EPOCH":"2026-03-28T18:11:49.546176","MEAN_MOTION":2.04487115,"ECCENTRICITY":0.7429558,"INCLINATION":62.9847,"RA_OF_ASC_NODE":333.7083,"ARG_OF_PERICENTER":252.5169,"MEAN_ANOMALY":20.2841,"EPHEMERIS_TYPE":0,"CLASSIFICATION_TYPE":"U","NORAD_CAT_ID":21706,"ELEMENT_SET_NO":999,"REV_AT_EPOCH":25507,"BSTAR":0.0004584,"MEAN_MOTION_DOT":-4.12e-6,"MEAN_MOTION_DDOT":0},{"OBJECT_NAME":"SL-12 R/B(2)","OBJECT_ID":"1991-074D","EPOCH":"2026-03-28T21:39:41.033664","MEAN_MOTION":0.99709416,"ECCENTRICITY":0.0001886,"INCLINATION":13.5085,"RA_OF_ASC_NODE":341.9369,"ARG_OF_PERICENTER":260.6037,"MEAN_ANOMALY":274.8858,"EPHEMERIS_TYPE":0,"CLASSIFICATION_TYPE":"U","NORAD_CAT_ID":21762,"ELEMENT_SET_NO":999,"REV_AT_EPOCH":11887,"BSTAR":0,"MEAN_MOTION_DOT":-9.4e-7,"MEAN_MOTION_DDOT":0},{"OBJECT_NAME":"INTELSAT 601 (IS-601)","OBJECT_ID":"1991-075A","EPOCH":"2026-03-28T20:16:38.719776","MEAN_MOTION":0.99585159,"ECCENTRICITY":0.000349,"INCLINATION":13.3101,"RA_OF_ASC_NODE":17.5188,"ARG_OF_PERICENTER":309.9664,"MEAN_ANOMALY":233.2295,"EPHEMERIS_TYPE":0,"CLASSIFICATION_TYPE":"U","NORAD_CAT_ID":21765,"ELEMENT_SET_NO":999,"REV_AT_EPOCH":12557,"BSTAR":0,"MEAN_MOTION_DOT":3.0e-7,"MEAN_MOTION_DDOT":0},{"OBJECT_NAME":"COSMOS 2172","OBJECT_ID":"1991-079A","EPOCH":"2026-03-28T23:15:42.290208","MEAN_MOTION":1.0025868,"ECCENTRICITY":0.000443,"INCLINATION":13.3118,"RA_OF_ASC_NODE":340.9374,"ARG_OF_PERICENTER":8.2903,"MEAN_ANOMALY":168.9499,"EPHEMERIS_TYPE":0,"CLASSIFICATION_TYPE":"U","NORAD_CAT_ID":21789,"ELEMENT_SET_NO":999,"REV_AT_EPOCH":4655,"BSTAR":0,"MEAN_MOTION_DOT":-1.71e-6,"MEAN_MOTION_DDOT":0}]
